      2.10          N: GNSS NAV DATA                        RINEX VERSION / TYPE
fic2rin                                 02/01/2024 00:18:04 PGM / RUN BY / DATE
                                                            END OF HEADER
5  24  1 31  2  0  0.0 -.159976072609D-03 -.147792889038D-11  .000000000000D+00
     .110000000000D+02  .179375000000D+02  .448804408791D-08 -.143618649320D+01
     .102445483208D-05  .566082005389D-02  .482611358166D-05  .515355143929D+04
     .266400000000D+06  .502914190292D-07 -.113270806412D+01  .104308128357D-06
     .969451314567D+00  .290656250000D+03  .123368189861D+01 -.817284043161D-08
     .156077929844D-09  .100000000000D+01  .229900000000D+04  .000000000000D+00
     .240000000000D+01  .000000000000D+00 -.111758708954D-07  .110000000000D+02
     .259200000000D+06  .400000000000D+01
3  24  1 31  2  0  0.0  .161855015904D-03  .250111042988D-10  .000000000000D+00
     .130000000000D+02  .190625000000D+02  .430875090534D-08  .132102729361D+01
     .901520252228D-06  .506044004578D-02  .483728945255D-05  .515378406334D+04
     .266400000000D+06 -.100582838058D-06 -.108289522808D+01  .204890966415D-07
     .982478622007D+00  .296875000000D+03  .107242365315D+01 -.814998233662D-08
     .178221709364D-09  .100000000000D+01  .229900000000D+04  .000000000000D+00
     .240000000000D+01  .000000000000D+00  .186264514923D-08  .130000000000D+02
     .259200000000D+06  .400000000000D+01
2  24  1 31  2  0  0.0 -.492867548019D-03  .579802872380D-11  .000000000000D+00
     .310000000000D+02  .327187500000D+02  .424303388225D-08 -.140581415460D+01
     .186637043953D-05  .162865392631D-01  .109747052193D-04  .515389872169D+04
     .266400000000D+06 -.329688191414D-06 -.221600162431D+01  .206753611565D-06
     .967608587844D+00  .177312500000D+03 -.124980037244D+01 -.803390607301D-08
     .964325882329D-10  .100000000000D+01  .229900000000D+04  .000000000000D+00
     .240000000000D+01  .000000000000D+00 -.176951289177D-07  .310000000000D+02
     .259200000000D+06  .400000000000D+01
1  24  1 31  2  0  0.0  .167754013091D-03  .125055521494D-11  .000000000000D+00
     .640000000000D+02  .281562500000D+02  .371051170056D-08  .225268032625D+01
     .134482979774D-05  .126515299780D-01  .108256936073D-04  .515400722504D+04
     .266400000000D+06 -.447034835815D-07 -.211190891138D+01 -.268220901489D-06
     .990568645297D+00  .183843750000D+03  .997907534763D+00 -.750138389132D-08
     .145720355552D-09  .100000000000D+01  .229900000000D+04  .000000000000D+00
     .485000000000D+01  .630000000000D+02  .512227416039D-08  .640000000000D+02
     .259200000000D+06  .400000000000D+01
17 24  1 31 17 59 44.0  .718371942639D-03 -.102318153949D-11  .000000000000D+00
     .200000000000D+02 -.280312500000D+02  .450125892407D-08  .411248596212D+00
    -.154413282871D-05  .136143815471D-01  .685453414917D-05  .515365985298D+04
     .323984000000D+06 -.149011611938D-06 -.311902470500D+01 -.875443220139D-07
     .970964539473D+00  .256625000000D+03 -.134036311196D+01 -.836999150089D-08
    -.408588447920D-09  .100000000000D+01  .229900000000D+04  .000000000000D+00
     .240000000000D+01  .000000000000D+00 -.111758708954D-07  .200000000000D+02
     .316800000000D+06  .400000000000D+01
2  24  1 31 18  0  0.0 -.492534134537D-03  .579802872380D-11  .000000000000D+00
     .420000000000D+02 -.275000000000D+01  .426732060817D-08  .710845218974D+00
    -.404193997383D-06  .162819219986D-01  .969506800175D-05  .515389393616D+04
     .324000000000D+06 -.104308128357D-06 -.221645976637D+01 -.249594449997D-06
     .967611010437D+00  .203125000000D+03 -.124930621480D+01 -.816641159239D-08
    -.123933733766D-09  .100000000000D+01  .229900000000D+04  .000000000000D+00
     .240000000000D+01  .000000000000D+00 -.176951289177D-07  .420000000000D+02
     .316800000000D+06  .400000000000D+01
1  24  1 31 18  0  0.0  .167831778526D-03  .136424205266D-11  .000000000000D+00
     .360000000000D+02  .164687500000D+02  .361979363608D-08 -.191414067793D+01
     .797212123871D-06  .126581321238D-01  .938400626183D-05  .515400307465D+04
     .324000000000D+06  .188127160072D-06 -.211234623026D+01 -.968575477600D-07
     .990575661452D+00  .213031250000D+03  .998125335469D+00 -.744173854971D-08
     .732173355102D-10  .100000000000D+01  .229900000000D+04  .000000000000D+00
     .340000000000D+01  .630000000000D+02  .512227416039D-08  .360000000000D+02
     .316800000000D+06  .400000000000D+01
8  24  1 31 18  0  0.0 -.164825469255D-03 -.193267624127D-11  .000000000000D+00
     .530000000000D+02 -.205625000000D+02  .484234456023D-08  .360501751339D+00
    -.101327896118D-05  .928958214354D-02  .549480319023D-05  .515358100319D+04
     .324000000000D+06  .949949026108D-07  .307132580459D+01  .763684511185D-07
     .955208507994D+00  .266250000000D+03  .310359022876D+00 -.841213611352D-08
    -.388587614805D-09  .100000000000D+01  .229900000000D+04  .000000000000D+00
     .240000000000D+01  .000000000000D+00  .512227416039D-08  .530000000000D+02
     .316800000000D+06  .400000000000D+01
7  24  1 31 18  0  0.0 -.508781522512D-04 -.920863385545D-11  .000000000000D+00
     .180000000000D+03  .100000000000D+02  .457233331318D-08 -.247023097184D+01
     .219792127609D-06  .178707955638D-01  .105965882540D-04  .515367811203D+04
     .324000000000D+06  .268220901489D-06  .100935151426D+01 -.100582838058D-06
     .950236832104D+00  .165343750000D+03 -.215387412089D+01 -.774389399284D-08
     .223580741607D-09  .100000000000D+01  .229900000000D+04  .000000000000D+00
     .240000000000D+01  .000000000000D+00 -.111758708954D-07  .180000000000D+03
     .316800000000D+06  .400000000000D+01
6  24  1 31 18  0  0.0  .424665398896D-03 -.140971678775D-10  .000000000000D+00
     .930000000000D+02  .890625000000D+01  .368443918597D-08 -.157702440940D+01
     .445172190666D-06  .313984521199D-02  .103823840618D-04  .515355925179D+04
     .324000000000D+06 -.223517417908D-07 -.212073520232D+01  .167638063431D-07
     .989693160510D+00  .197093750000D+03 -.787677579944D+00 -.770174938020D-08
     .378587198248D-10  .100000000000D+01  .229900000000D+04  .000000000000D+00
     .240000000000D+01  .000000000000D+00  .372529029846D-08  .930000000000D+02
     .316800000000D+06  .400000000000D+01
4  24  1 31 18  0  0.0  .280189327896D-03  .954969436862D-11  .000000000000D+00
     .213000000000D+03 -.599062500000D+02  .451447376024D-08  .107377031313D+00
    -.310502946377D-05  .281823717523D-02  .703334808350D-05  .515358706093D+04
     .324000000000D+06  .111758708954D-07 -.385289904871D-02  .223517417908D-07
     .964580344495D+00  .245125000000D+03 -.299373231221D+01 -.812319550656D-08
    -.153220667970D-09  .100000000000D+01  .229900000000D+04  .000000000000D+00
     .240000000000D+01  .000000000000D+00 -.465661287308D-08  .213000000000D+03
     .316800000000D+06  .400000000000D+01
10 24  1 31 18  0  0.0 -.714971683919D-04 -.147792889038D-11  .000000000000D+00
     .590000000000D+02  .105937500000D+02  .408945605655D-08  .237416095578D+01
     .497326254845D-06  .930855667684D-02  .589713454247D-05  .515368671989D+04
     .324000000000D+06 -.108033418655D-06 -.108593861116D+01 -.197440385818D-06
     .982181465309D+00  .277125000000D+03 -.238229822693D+01 -.786175604512D-08
     .292512184307D-09  .100000000000D+01  .229900000000D+04  .000000000000D+00
     .240000000000D+01  .000000000000D+00  .232830643654D-08  .590000000000D+02
     .316800000000D+06  .400000000000D+01
9  24  1 31 18  0  0.0  .769072212279D-04  .125055521494D-10  .000000000000D+00
     .510000000000D+02 -.589375000000D+02  .469412410054D-08  .819155097555D+00
    -.306777656078D-05  .282769114710D-02  .669062137604D-05  .515372994995D+04
     .324000000000D+06 -.298023223877D-07 -.624523312188D-01 -.204890966415D-07
     .958058310448D+00  .247312500000D+03  .201197992517D+01 -.823677166603D-08
    -.139291516336D-09  .100000000000D+01  .229900000000D+04  .000000000000D+00
     .240000000000D+01  .000000000000D+00  .139698386192D-08  .510000000000D+02
     .316800000000D+06  .400000000000D+01
31 24  1 31 18  0  0.0 -.227591022849D-03 -.113686837722D-12  .000000000000D+00
     .560000000000D+02  .543750000000D+01  .457233331318D-08  .296092574377D+01
     .214204192162D-06  .105943530798D-01  .105202198029D-04  .515368087578D+04
     .324000000000D+06 -.819563865662D-07  .103036453747D+01 -.124797224998D-06
     .954231012466D+00  .173343750000D+03  .654988592893D+00 -.780889670046D-08
     .807176479283D-10  .100000000000D+01  .229900000000D+04  .000000000000D+00
     .240000000000D+01  .000000000000D+00 -.135041773319D-07  .560000000000D+02
     .316800000000D+06  .400000000000D+01
32 24  1 31 18  0  0.0 -.608912203461D-03 -.238742359215D-11  .000000000000D+00
     .600000000000D+02 -.559687500000D+02  .466269421993D-08  .112708428665D+01
    -.293739140034D-05  .747242814396D-02  .676698982716D-05  .515362974167D+04
     .324000000000D+06 -.987201929092D-07 -.482896793904D-01  .502914190292D-07
     .961547629004D+00  .248656250000D+03 -.218783420901D+01 -.827998775187D-08
    -.179293182566D-09  .100000000000D+01  .229900000000D+04  .000000000000D+00
     .240000000000D+01  .000000000000D+00  .465661287308D-09  .600000000000D+02
     .316800000000D+06  .400000000000D+01
24 24  1 31 18  0  0.0 -.423899386078D-03 -.659383658785D-11  .000000000000D+00
     .590000000000D+02 -.500000000000D+00  .505342478114D-08 -.141959602934D+01
     .614672899246D-07  .150786731392D-01  .105053186417D-04  .515373317528D+04
     .324000000000D+06  .370666384697D-06  .914331229703D+00  .614672899246D-07
     .933962203480D+00  .159000000000D+03  .965388194190D+00 -.815319675623D-08
     .400016662300D-10  .100000000000D+01  .229900000000D+04  .000000000000D+00
     .240000000000D+01  .000000000000D+00  .232830643654D-08  .590000000000D+02
     .316800000000D+06  .400000000000D+01
